{
    "links": {
        "self": "http://www.neowsapp.com/rest/v1/neo/3617957?api_key=iIulBulltgU6a56xZRHN4H3l9WmuAYTsLGpBGhQ2"
    },
    "id": "3617957",
    "neo_reference_id": "3617957",
    "name": "(2012 VG77)",
    "designation": "2012 VG77",
    "nasa_jpl_url": "http://ssd.jpl.nasa.gov/sbdb.cgi?sstr=3617957",
    "absolute_magnitude_h": 25.4,
    "estimated_diameter": {
        "kilometers": {
            "estimated_diameter_min": 0.022108281,
            "estimated_diameter_max": 0.0494356193
        },
        "meters": {
            "estimated_diameter_min": 22.1082810359,
            "estimated_diameter_max": 49.435619262
        },
        "miles": {
            "estimated_diameter_min": 0.0137374447,
            "estimated_diameter_max": 0.0307178602
        },
        "feet": {
            "estimated_diameter_min": 72.5337327539,
            "estimated_diameter_max": 162.1903570994
        }
    },
    "is_potentially_hazardous_asteroid": false,
    "close_approach_data": [
        {
            "close_approach_date": "2012-11-18",
            "close_approach_date_full": "2012-Nov-18 18:15",
            "epoch_date_close_approach": 1353262500000,
            "relative_velocity": {
                "kilometers_per_second": "19.6916278445",
                "kilometers_per_hour": "70889.8602403721",
                "miles_per_hour": "44048.202325469"
            },
            "miss_distance": {
                "astronomical": "0.0634454107",
                "lunar": "24.6802647623",
                "kilometers": "9491298.301995209",
                "miles": "5897619.2886195242"
            },
            "orbiting_body": "Earth"
        },
        {
            "close_approach_date": "2015-05-02",
            "close_approach_date_full": "2015-May-02 18:22",
            "epoch_date_close_approach": 1430590920000,
            "relative_velocity": {
                "kilometers_per_second": "27.5725804463",
                "kilometers_per_hour": "99261.2896066516",
                "miles_per_hour": "61677.1052003108"
            },
            "miss_distance": {
                "astronomical": "0.4751325136",
                "lunar": "184.8265477904",
                "kilometers": "71078812.002306032",
                "miles": "44166325.7584939616"
            },
            "orbiting_body": "Earth"
        }
    ],
    "orbital_data": {
        "orbit_id": "6",
        "orbit_determination_date": "2017-04-06 08:47:59",
        "first_observation_date": "2012-11-14",
        "last_observation_date": "2012-11-19",
        "data_arc_in_days": 5,
        "observations_used": 24,
        "orbit_uncertainty": "8",
        "minimum_orbit_intersection": ".0601756",
        "jupiter_tisserand_invariant": "3.959",
        "epoch_osculation": "2456246.5",
        "eccentricity": ".5094094751117194",
        "semi_major_axis": "1.672991673200237",
        "inclination": "29.5491866822486",
        "ascending_node_longitude": "52.04010995561755",
        "orbital_period": "790.3857396097143",
        "perihelion_distance": ".8207538630890271",
        "perihelion_argument": "71.64190597907765",
        "aphelion_distance": "2.525229483311447",
        "perihelion_time": "2456299.296868645717",
        "mean_anomaly": "335.9524093617333",
        "mean_motion": ".4554738046991649",
        "equinox": "J2000",
        "orbit_class": {
            "orbit_class_type": "APO",
            "orbit_class_description": "Near-Earth asteroid orbits which cross the Earth’s orbit similar to that of 1862 Apollo",
            "orbit_class_range": "a (semi-major axis) > 1.0 AU; q (perihelion) < 1.017 AU"
        }
    },
    "is_sentry_object": false
}